ONEWEB-0109             
1 47259U 20100B   23059.52152338  .00000189  00000+0  49046-3 0  9991
2 47259  87.8940 229.9831 0001520  96.5270 263.6032 13.12444935106540
ONEWEB-0109             
1 47259U 20100B   23059.90270798  .00000130  00000+0  32572-3 0  9996
2 47259  87.8942 229.9074 0001533  96.9545 263.1758 13.12445081106592
ONEWEB-0109             
1 47259U 20100B   23059.97894511  .00000054  00000+0  11595-3 0  9995
2 47259  87.8942 229.8923 0001531  96.9959 263.1343 13.12445038106605
ONEWEB-0109             
1 47259U 20100B   23060.89378824 -.00000142  00000+0 -42938-3 0  9997
2 47259  87.8942 229.7106 0001509  97.5048 262.6252 13.12444830106723
ONEWEB-0109             
1 47259U 20100B   23061.73239381 -.00000194  00000+0 -57452-3 0  9999
2 47259  87.8944 229.5440 0001494  97.5379 262.5919 13.12445234106834
ONEWEB-0109             
1 47259U 20100B   23062.41852663 -.00000293  00000+0 -84863-3 0  9995
2 47259  87.8945 229.4078 0001482  97.9739 262.1557 13.12444657106924
ONEWEB-0109             
1 47259U 20100B   23062.87594906 -.00000470  00000+0 -13412-2 0  9996
2 47259  87.8948 229.3170 0001467  98.4270 261.7025 13.12444327106983
ONEWEB-0109             
1 47259U 20100B   23062.95218604 -.00000486  00000+0 -13857-2 0  9993
2 47259  87.8947 229.3019 0001466  98.4336 261.6959 13.12444396106998
